#dP2023  7 11  0  0  0.00000000      96 __u+U ITR00 EXT  IAC
## 2270 172800.00000000   900.00000000 60136 0.0000000000000
+  118   C06C07C08C09C10C11C12C13C14C16C19C20C21C22C23C24C25
+        C26C27C28C29C30C32C33C34C35C36C37C38C39C40C41C42C43
+        C44C45C46E02E03E04E05E07E08E09E10E11E12E13E14E15E18
+        E19E21E24E25E26E27E30E31E34E36G01G02G03G04G05G06G07
+        G08G09G10G11G12G13G14G15G16G17G18G19G20G21G22G23G24
+        G25G26G27G28G29G30G31G32J02J03J04R01R02R03R04R05R07
+        R08R09R11R12R13R14R15R16R17R18R19R20R21R22R24R25  0
++        10  9 10  9  9  8  8 10 13 10  8  9  9  9  8  8  7
++         7  8  7  8 10  9  7  7  7  9  7  7  9 12  9  9  7
++         8  8  8  8  7  8  7  7  8  8  8  7  8  6 10  7  6
++         7  7  8  8  6  7  8  7  7  7  7  6  7  6  7  7  7
++         9  6  8  7  6  7  7  6  7  7  7  8  7  6  7  7  7
++         6  7  8  7  7  7  6  7  8  9 11  7  7  7  8 10  7
++         7  8  7  8  7  8  8  9  6  7  9  9  8  9  8  8  0
%c M  cc GPS ccc cccc cccc cccc cccc ccccc ccccc ccccc ccccc
%c cc cc ccc ccc cccc cccc cccc cccc ccccc ccccc ccccc ccccc
%f  0.0000000  0.000000000  0.00000000000  0.000000000000000
%f  0.0000000  0.000000000  0.00000000000  0.000000000000000
%i    0    0    0    0      0      0      0      0         0
%i    0    0    0    0      0      0      0      0         0
/* IAC                                ULTRA-RAPID PREDICTION
/* S/V CLOCKS ARE ALIGNED TO GNSS TIME                      
/* G:C1WC2W R:C1PC2P E:C1XC5X C:C2IC6I J:C1CC2S             
/* PCV:IGS20_2247 OL/AL:FES2004  NONE     YN ORB:CoN CLK:CoN
*  2023 07 11 22 45  0.00000000
PC06  -5978.343534  38492.138813 -15728.642662    101.660518
PC07  -6642.666394  26576.122847  32118.741255   -308.307852
PC08 -19263.368392  31439.999000 -20648.926725    431.336740
PC09    126.609883  41435.899101  -5456.867572    427.805063
PC10    275.691322  27984.563087  31918.001905   -111.731253
PC11  12406.253614  24520.340834  -4878.021840    721.167369
PC12    251.869725  24765.029504  12906.592276    780.772715
PC13 -12641.802339  31669.848733 -24841.370931    313.656910
PC14  16941.162282  14130.315801 -17115.422380    549.732575
PC16  -5694.803662  38265.824002 -16111.153827      9.607613
PC19 -24200.884217  -9973.654808   9655.480732   -937.919198
PC20  -8682.901258 -15806.626417  21293.742416    442.371046
PC21 -13384.611267  12545.359660 -21008.194237   -933.606379
PC22 -26580.265413   1918.567237  -8230.293759   -400.553169
PC23  21321.161172  -8915.938152  15653.773977   -947.587484
PC24  -2741.281546  22541.385184  16231.017902    162.327758
PC25  13990.697816   8462.356441  22607.898616    165.963256
PC26 -15851.612084  22947.238879   1368.872893   -147.420297
PC27   6070.096473 -19944.501907 -18576.493119    168.209400
PC28  15811.901435  -3144.972340 -22777.895746    125.338355
PC29 -17589.616525 -17207.504398  13150.687610    145.989847
PC30  -7984.305883 -26341.400754  -4661.125318     -2.128168
PC32  13425.620822 -12625.577953  20971.862367   -539.975773
PC33  24244.833873   9868.115561  -9704.649339   -911.623033
PC34   8899.615385  26229.489400   3314.271294    212.711569
PC35 -15941.317847   3233.895402  22663.539652    590.424244
PC36 -13256.161606  -9485.652875 -22621.306410   -334.482209
PC37  16926.698986 -22169.154426   -381.229290   -792.319497
PC38 -23798.443406  32465.214367 -12786.127398     90.950403
PC39  -8385.617965  34521.347827 -22463.300863     -3.775861
PC40 -11826.517715  20147.069430  35088.623042    -29.118529
PC41  26819.152254  -1609.219460   7619.559543   -904.473407
PC42   7199.701343  15936.001390 -21714.268969   -615.783483
PC43  17417.092708  17900.723126 -12444.546827     30.260491
PC44  -5552.395246  20044.056047  18576.101810    165.734931
PC45 -21326.293629   9451.561674 -15324.913350     79.340671
PC46   1537.351433 -21874.471620 -17234.165171    -68.183200
PE02 -23494.575920  15291.216080   9523.200502     49.215119
PE03 -12829.170051  11340.624952 -24143.364687    -35.105056
PE04  -5970.572845 -22149.679476  18712.757025   -164.593631
PE05 -24408.384542  -6285.099726 -15510.791401     -1.285035
PE07  21469.596416  20242.634804  -2422.612617    -59.256789
PE08   5732.318702  21962.196776 -19004.035051   -112.937972
PE09 -21400.951646 -20268.999304   2609.073457    -81.324217
PE10  -3735.322154 -26452.766191  12724.121011   -547.814473
PE11 -10059.047458 -18942.417744  20386.969252   2460.930473
PE12   2667.163818 -29241.096156   3792.209903   -614.579742
PE13   9652.176704  19553.412896 -20020.124194    -19.319836
PE14   4077.346308 -19914.173646 -20221.114131    279.537536
PE15  -2853.668660  29258.615586  -3453.116423    -36.357907
PE18  12797.171835  24464.763684   9300.124429    285.065135
PE19  14950.183194  -9049.928644  23900.489550  -2097.852140
PE21  28132.813824  -4065.010620   8269.719037   -540.169478
PE24 -16131.332278 -10685.078767 -22414.409123   -204.287098
PE25 -28069.445338   3820.307414  -8574.122925   -608.151403
PE26  16577.779891  -2269.735538 -24420.411616    160.231992
PE27  16749.699091  10179.115293  22186.784034    -96.846033
PE30  -4967.947831  18366.226905  22672.451350   -327.875384
PE31   4369.361236 -18261.783884 -22871.577498     -0.188436
PE34 -13468.412806  21757.282103  14876.251643    -55.575684
PE36 -16333.568642   1453.585318  24636.606129    -84.528967
PG01 -13581.760788  17253.612443  14345.508067    173.586382
PG02 -14806.526901  11506.620227  19252.718082   -577.116496
PG03 -21593.608081  12978.224761  -8356.670882   -236.401132
PG04 -11901.546881   9534.259755 -21739.765021     93.083653
PG05  25222.306481  -3886.303261  -7747.962697   -134.532909
PG06   6586.041362  19865.132938 -16238.499335    578.761375
PG07  -5545.555768  25693.515833   -180.850656    127.794698
PG08 -20058.656155   -827.025000  17511.078519   -131.689668
PG09  -2154.622135  17019.709251 -20338.986655   -114.518477
PG10  -6870.621157 -13354.901034  22101.054886    -44.796393
PG11  14161.593772   5457.106800 -21789.201136   -272.043814
PG12  24004.944990  -9994.949389  -5477.258574   -399.541847
PG13  20592.321675  10080.377995  13406.048017    545.858420
PG14   3093.417470  15216.423194  21560.674226    119.284438
PG15  19804.371114  -2154.594502  17220.979522     57.136136
PG16 -24469.804169  -2084.055731 -10976.466915   -481.854890
PG17  11830.706069  21677.621100  10058.195796    720.761190
PG18   4434.801289 -26007.778518   2137.012516   -341.962693
PG19  16869.871845  20628.209639   1958.552353    342.605763
PG20  20818.366460   2110.948511 -16211.594789    423.183259
PG21 -15358.592402   7691.751341  20553.324887    152.253032
PG22 -18419.842635 -19242.272157   -184.933029    511.364529
PG23   7038.733902 -16584.035092  19463.276435     42.246481
PG24  14420.160818 -13432.395892  17245.771767   -254.720226
PG25  14257.447682 -16442.103632 -15356.478842    455.516547
PG26 -17053.414798  -8155.077636 -18903.398174    236.739443
PG27 -22328.120068 -11604.940441   8866.220784     -1.189621
PG28  -6640.633798 -21230.411480 -14536.312171     82.832990
PG29   4710.735855 -15599.453281 -21006.297595   -605.272104
PG30   1093.243281  24998.876828   8611.838383   -504.960543
PG31 -12593.826513 -10898.669001 -20774.145058   -219.886133
PG32 -15212.297244 -20550.057534   7746.831140   -519.178288
PJ02 -31610.215353  25588.807843  16079.097617     -1.291681
PJ03 -26264.776573  27117.246703  23977.517036     -0.044824
PJ04 -29393.382072  20933.131117 -16562.900160     96.678675
PR01 -20483.854762   1316.115226 -15133.471117     61.196509
PR02  -4466.631664   9866.802992 -23051.834397    -22.612482
PR03  13701.771755  13030.688255 -17045.429153     81.339074
PR04  23787.746021   9010.765805  -1797.614516    194.625032
PR05  21020.345127    152.351884  14444.699519    115.610604
PR07 -14449.854593 -13051.396934  16545.161596     59.970404
PR08 -23879.687187  -8855.352051   1734.815747    -71.613106
PR09  13329.525381 -19336.859488 -10032.792137    130.663203
PR11 -13809.002730  -1142.511319 -21397.467698   -102.044521
PR12 -20336.535633  13409.296211  -7557.537428     28.997478
PR13 -14825.061184  19032.900228   8273.714214    -36.978962
PR14    797.465080  13491.174175  21646.347207     24.962771
PR15  14724.487851    274.982014  20854.630210     87.906309
PR16  20236.370458 -13387.046623   7946.783665     16.561263
PR17   6947.949818  24128.996117  -4623.296611     -1.037487
PR18  11078.095745  13279.577900 -18722.891424     91.101567
PR19  10092.134236  -2513.192120 -23297.493967   -239.485991
PR20   2657.643630 -21544.135130 -13424.392525    -96.362490
PR21  -7253.851157 -23714.867439   5897.177282    -21.990251
PR22 -11103.850080 -12701.741345  19157.838792     93.459288
PR24  -1860.798902  22001.312560  12801.458311    -16.090885
PR25  -5875.901121 -24395.634338   4517.759894   1134.415139
EOF
